! Orbits computed with differential corrections
format  = 'OEF1.1'       ! file format
rectype = 'ML'           ! record type (1L/ML)
refsys  = ECLM J2000     ! default reference system
END_OF_HEADER
1996RO13
! Equinoctial elements: a, e*sin(LP), e*cos(LP), tan(i/2)*sin(LN), tan(i/2)*cos(LN), mean long.
 EQU   3.21771000223144E+00  0.134937092323917  0.128972225866734 -0.002463342747351 -0.000751148176771  10.6003525011705
 MJD     50345.36383972 TDT
 MAG  14.622  0.000
! RMS    1.69286E-03   2.61347E-03   7.59477E-03   1.14802E-05   1.66126E-05   2.61424E-01
! EIG   3.30100E-07   4.51928E-07   1.08166E-05   1.61022E-04   1.85007E-03   9.20578E-03
! WEA  -0.14710  -0.27724  -0.81792  -0.00123  -0.00133  -0.48218
 COV   2.865771785583505E-06  4.016056488697616E-06  9.201868502944466E-06
 COV   1.369341388329617E-08  1.361869440984030E-08  4.046166552527631E-04
 COV   6.830205830058403E-06  1.865890971485625E-05  2.800340484067025E-08
 COV   2.964371515349144E-08  6.831297317250314E-04  5.768051516915354E-05
 COV   8.695438268843981E-08  9.535286150069941E-08  1.854981608551171E-03
 COV   1.317946111147933E-10  1.364742599777224E-10  2.783322855837902E-06
 COV   2.759788716303486E-10  2.940863148256755E-06  6.834261979970138E-02
 NOR   6.710987606108993E+07 -1.678705217064615E+10  2.810529586719071E+08
 NOR   2.075328228972060E+09  1.029043022532337E+08  1.596829869685562E+08
 NOR   7.067118960756971E+12 -1.170122236479319E+11 -3.230180762824226E+09
 NOR   1.448851888718834E+10 -6.736564778458787E+10  1.951436560712489E+09
 NOR  -7.693781894219039E+09 -7.535425994896928E+08  1.115329817305114E+09
 NOR   4.876135007018525E+12  3.125740669434269E+11  1.679257395979748E+07
 NOR   2.864965406127696E+10 -1.389413580589732E+08  6.421514598196201E+08
